[{"addressPK":1,"streetAddress":"1 W 53RD ST New York NY","zipcode":"10019","city":"New York","state":"NY","buildingName":"St. Thomas Church Parish House","ada":false,"lat":"40.7608523","long":"-73.9765938"},{"addressPK":2,"streetAddress":"10 UNION SQ E New York NY","zipcode":"10003","city":"New York","state":"NY","buildingName":"Beth Israel Phillips Ambulatory Center","ada":true,"lat":"40.7348335","long":"-73.9897815"},{"addressPK":3,"streetAddress":"1000 TENTH AVE New York NY","zipcode":"10019","city":"New York","state":"NY","buildingName":"Mount Sinai - Roosevelt Hospital","ada":true,"lat":"40.7700536177104","long":"-73.9877635987168"},{"addressPK":4,"streetAddress":"109 E 50TH ST New York NY","zipcode":"10022","city":"New York","state":"NY","buildingName":"","ada":true,"lat":"40.7569178","long":"-73.97309"},{"addressPK":5,"streetAddress":"109 W 129TH ST New York NY","zipcode":"10027","city":"New York","state":"NY","buildingName":"SRO Building Community Room","ada":true,"lat":"40.8106798","long":"-73.944244"},{"addressPK":6,"streetAddress":"111 W 71ST ST New York NY","zipcode":"10023","city":"New York","state":"NY","buildingName":"Hargrave House","ada":false,"lat":"40.7769516","long":"-73.9795507"},{"addressPK":7,"streetAddress":"114 E 35TH ST New York NY","zipcode":"10016","city":"New York","state":"NY","buildingName":"The New York New Church","ada":true,"lat":"40.7473169","long":"-73.9800724"},{"addressPK":8,"streetAddress":"1157 LEXINGTON AVE New York NY","zipcode":"10028","city":"New York","state":"NY","buildingName":"All Souls Uniterian Church","ada":true,"lat":"40.7754455","long":"-73.9583638"},{"addressPK":9,"streetAddress":"116 W 11TH ST New York NY","zipcode":"10011","city":"New York","state":"NY","buildingName":"P.S. 41 (see footnote re: temp location)","ada":true,"lat":"40.7355598","long":"-73.9990141"},{"addressPK":10,"streetAddress":"119 NINTH AVE New York NY","zipcode":"10011","city":"New York","state":"NY","buildingName":"Fulton Senior Center","ada":true,"lat":"40.7432442","long":"-74.0039393"},{"addressPK":11,"streetAddress":"12 W 11TH ST New York NY","zipcode":"10011","city":"New York","state":"NY","buildingName":"Church of the Ascension Parish House","ada":false,"lat":"40.7341868","long":"-73.9957178"},{"addressPK":12,"streetAddress":"12 W 12TH ST New York NY","zipcode":"10011","city":"New York","state":"NY","buildingName":"First Presbyterian Church","ada":true,"lat":"40.7348062","long":"-73.9951634"},{"addressPK":13,"streetAddress":"120 W 69TH ST New York NY","zipcode":"10023","city":"New York","state":"NY","buildingName":"Christ & St. Stephen&apos;s Church","ada":false,"lat":"40.7756982","long":"-73.9810333"},{"addressPK":14,"streetAddress":"122 E 37TH ST New York NY","zipcode":"10016","city":"New York","state":"NY","buildingName":"MUSTARD SEED","ada":false,"lat":"40.7483929","long":"-73.9787906"},{"addressPK":15,"streetAddress":"123 E 15TH ST New York NY","zipcode":"10003","city":"New York","state":"NY","buildingName":"Seafarers & Intl House","ada":true,"lat":"40.7346341","long":"-73.9879773"},{"addressPK":16,"streetAddress":"125 BARCLAY ST New York NY","zipcode":"10007","city":"New York","state":"NY","buildingName":"Municipal Union Bldg DC 37","ada":false,"lat":"40.7143477","long":"-74.0130151"},{"addressPK":17,"streetAddress":"125 E 85TH ST New York NY","zipcode":"10028","city":"New York","state":"NY","buildingName":"Congregational Kehilath Jeshurun","ada":true,"lat":"40.7790514","long":"-73.956386"},{"addressPK":18,"streetAddress":"125 W 104TH ST New York NY","zipcode":"10025","city":"New York","state":"NY","buildingName":"Iglesia Metodista Grace","ada":true,"lat":"40.7985878","long":"-73.9649967"},{"addressPK":19,"streetAddress":"125 W 14TH ST New York NY","zipcode":"10011","city":"New York","state":"NY","buildingName":"McBurney YMCA","ada":true,"lat":"40.7379244","long":"-73.9976813"},{"addressPK":20,"streetAddress":"127 E 22ND ST New York NY","zipcode":"10010","city":"New York","state":"NY","buildingName":"Mabel Bacon High School of the Future","ada":true,"lat":"40.7390247","long":"-73.9854161"},{"addressPK":21,"streetAddress":"127 W 127TH ST New York NY","zipcode":"10027","city":"New York","state":"NY","buildingName":"S.A.G.E.","ada":true,"lat":"40.8095378","long":"-73.9453852"},{"addressPK":22,"streetAddress":"1285 MADISON AVE New York NY","zipcode":"10128","city":"New York","state":"NY","buildingName":"Philomathist Center","ada":false,"lat":"40.7843189","long":"-73.9560924"},{"addressPK":23,"streetAddress":"1296 LEXINGTON AVE New York NY","zipcode":"10128","city":"New York","state":"NY","buildingName":"Immanuel Lutheran Church","ada":false,"lat":"40.7803300287851","long":"-73.9550885355201"},{"addressPK":24,"streetAddress":"131 W 72ND ST New York NY","zipcode":"10023","city":"New York","state":"NY","buildingName":"","ada":false,"lat":"40.7780247","long":"-73.9798344"},{"addressPK":25,"streetAddress":"133 W 46TH ST New York NY","zipcode":"10036","city":"New York","state":"NY","buildingName":"St. Mary the Virgin Church","ada":false,"lat":"40.6589343","long":"-73.9348705"},{"addressPK":26,"streetAddress":"134 W 29TH ST New York NY","zipcode":"10001","city":"New York","state":"NY","buildingName":"","ada":true,"lat":"40.7472463","long":"-73.9917061"},{"addressPK":27,"streetAddress":"135 E 96TH ST New York NY","zipcode":"10128","city":"New York","state":"NY","buildingName":"St. Francis de Sales Church","ada":false,"lat":"40.7862757","long":"-73.951491"},{"addressPK":28,"streetAddress":"139 W 31ST ST New York NY","zipcode":"10001","city":"New York","state":"NY","buildingName":"St. Francis of Assisi Education Center","ada":false,"lat":"40.647412","long":"-73.9480599"},{"addressPK":29,"streetAddress":"1393 YORK AVE New York NY","zipcode":"10021","city":"New York","state":"NY","buildingName":"Church of the Epiphany","ada":false,"lat":"40.768415","long":"-73.9528341"},{"addressPK":30,"streetAddress":"141 E 43RD ST New York NY","zipcode":"10017","city":"New York","state":"NY","buildingName":"St. Agnes Church","ada":false,"lat":"40.7518754","long":"-73.9747248"},{"addressPK":31,"streetAddress":"141 HENRY ST New York NY","zipcode":"10002","city":"New York","state":"NY","buildingName":"Church of Saint Theresa Rectory","ada":false,"lat":"40.7134487","long":"-73.9906625"},{"addressPK":32,"streetAddress":"141 W 73RD ST New York NY","zipcode":"10023","city":"New York","state":"NY","buildingName":"Hamilton House","ada":true,"lat":"40.7789036","long":"-73.9799533"},{"addressPK":33,"streetAddress":"144 W 90TH ST New York NY","zipcode":"10024","city":"New York","state":"NY","buildingName":"St. Gregory&apos;s Church","ada":false,"lat":"40.7898068","long":"-73.9723737"},{"addressPK":34,"streetAddress":"15 RUTHERFORD PL New York NY","zipcode":"10003","city":"New York","state":"NY","buildingName":"Friends Meeting House","ada":false,"lat":"40.7337834","long":"-73.985098"},{"addressPK":35,"streetAddress":"152 W 66TH ST New York NY","zipcode":"10023","city":"New York","state":"NY","buildingName":"Good Shepherd Faith Church","ada":false,"lat":"40.7744405","long":"-73.9838262"},{"addressPK":36,"streetAddress":"152 W 71ST ST New York NY","zipcode":"10023","city":"New York","state":"NY","buildingName":"Blessed Sacrament Church Rectory","ada":false,"lat":"40.7774259","long":"-73.9812051"},{"addressPK":37,"streetAddress":"154 SULLIVAN ST New York NY","zipcode":"10012","city":"New York","state":"NY","buildingName":"St. Anthony&apos;s of Padua","ada":false,"lat":"40.7273786","long":"-74.0017414"},{"addressPK":38,"streetAddress":"155 E 22ND ST New York NY","zipcode":"10010","city":"New York","state":"NY","buildingName":"Gustavus Adolphus Church","ada":false,"lat":"40.7384244","long":"-73.9840055"},{"addressPK":39,"streetAddress":"155 SULLIVAN ST New York NY","zipcode":"10012","city":"New York","state":"NY","buildingName":"St. Anthony of Padua Church","ada":false,"lat":"40.7272525","long":"-74.0015782"},{"addressPK":40,"streetAddress":"155 W 22ND ST New York NY","zipcode":"10011","city":"New York","state":"NY","buildingName":"St. Francis Residence","ada":true,"lat":"40.7431787","long":"-73.9952777"},{"addressPK":42,"streetAddress":"164 W 74TH ST New York NY","zipcode":"10023","city":"New York","state":"NY","buildingName":"Phoenix House","ada":true,"lat":"40.7796117","long":"-73.9801807"},{"addressPK":43,"streetAddress":"165 W 105TH ST New York NY","zipcode":"10025","city":"New York","state":"NY","buildingName":"West End Presbyterian Church","ada":false,"lat":"40.7996866","long":"-73.9657282"},{"addressPK":44,"streetAddress":"1727 AMSTERDAM AVE New York NY","zipcode":"10031","city":"New York","state":"NY","buildingName":"Council Center for Problems of Living","ada":true,"lat":"40.8255289","long":"-73.9471616"},{"addressPK":45,"streetAddress":"173 E 3RD ST New York NY","zipcode":"10009","city":"New York","state":"NY","buildingName":"Most Holy Redeemer Church","ada":false,"lat":"40.7233431","long":"-73.9843062"},{"addressPK":46,"streetAddress":"175 9TH AVE New York NY","zipcode":"10011","city":"New York","state":"NY","buildingName":"General Theological Seminary","ada":false,"lat":"40.6717748","long":"-73.9913909"},{"addressPK":47,"streetAddress":"178 BENNETT AVE New York NY","zipcode":"10040","city":"New York","state":"NY","buildingName":"Our Saviour&apos;s Atonement Church","ada":false,"lat":"40.8560069","long":"-73.9342762"},{"addressPK":48,"streetAddress":"184 E 76TH ST New York NY","zipcode":"10021","city":"New York","state":"NY","buildingName":"St. Jean Baptiste Church","ada":true,"lat":"40.7729024777959","long":"-73.960301601538"},{"addressPK":49,"streetAddress":"1854 AMSTERDAM AVE New York NY","zipcode":"10031","city":"New York","state":"NY","buildingName":"","ada":false,"lat":"40.8295902","long":"-73.9446541"},{"addressPK":50,"streetAddress":"189TH ST New York NY","zipcode":"10040","city":"New York","state":"NY","buildingName":"Cornerstone Center","ada":false,"lat":"40.85837","long":"-73.927473"},{"addressPK":51,"streetAddress":"19 UNION SQ W New York NY","zipcode":"10003","city":"New York","state":"NY","buildingName":"The Realization Center","ada":true,"lat":"40.7360864","long":"-73.9912277"},{"addressPK":52,"streetAddress":"2 E 90TH ST New York NY","zipcode":"10128","city":"New York","state":"NY","buildingName":"Church of the Heavenly Rest","ada":false,"lat":"40.7836928","long":"-73.9578694"},{"addressPK":53,"streetAddress":"20 CARDINAL HAYES PL New York NY","zipcode":"10007","city":"New York","state":"NY","buildingName":"St. Andrew&apos;s Church","ada":true,"lat":"40.7132514","long":"-74.002398"},{"addressPK":54,"streetAddress":"20 CUMMING ST New York NY","zipcode":"10034","city":"New York","state":"NY","buildingName":"Holy Trinity Episcopal Church","ada":false,"lat":"40.8664723","long":"-73.9264521"},{"addressPK":55,"streetAddress":"20 WASHINGTON SQ N New York NY","zipcode":"10011","city":"New York","state":"NY","buildingName":"The Caring Community","ada":true,"lat":"40.7319436","long":"-73.9977667"},{"addressPK":56,"streetAddress":"200 W 97TH ST New York NY","zipcode":"10025","city":"New York","state":"NY","buildingName":"Holy Name School","ada":false,"lat":"40.7946604892952","long":"-73.9699229082063"},{"addressPK":57,"streetAddress":"2005 AMSTERDAM AVE New York NY","zipcode":"10032","city":"New York","state":"NY","buildingName":"COATHA Church on the Hill Senior Center","ada":true,"lat":"40.8342553","long":"-73.9407968"},{"addressPK":58,"streetAddress":"202 W 24 ST New York NY","zipcode":"10011","city":"New York","state":"NY","buildingName":"Christopher House","ada":true,"lat":"40.7449478","long":"-73.995862"},{"addressPK":59,"streetAddress":"204 W 134TH ST New York NY","zipcode":"10030","city":"New York","state":"NY","buildingName":"St. Phillip&apos;s Church","ada":true,"lat":"40.8147959","long":"-73.9448542"},{"addressPK":60,"streetAddress":"2044 ADAM CLAYTON POWELL BLVD New York NY","zipcode":"10027","city":"New York","state":"NY","buildingName":"Spiritual Renewal Church","ada":false,"lat":"40.8072583","long":"-73.9499047"},{"addressPK":61,"streetAddress":"2044 SEVENTH AVE New York NY","zipcode":"10027","city":"New York","state":"NY","buildingName":"","ada":true,"lat":"40.8071759186691","long":"-73.9497519327616"},{"addressPK":62,"streetAddress":"206208 E 11TH ST New York NY","zipcode":"10003","city":"New York","state":"NY","buildingName":"All Saints Ukrainian Orthodox Church","ada":false,"lat":"40.732373","long":"-73.989477"},{"addressPK":63,"streetAddress":"207 W 96TH ST New York NY","zipcode":"10025","city":"New York","state":"NY","buildingName":"Holy Name Church","ada":false,"lat":"40.7945161","long":"-73.9710419"},{"addressPK":64,"streetAddress":"208 W 13TH ST New York NY","zipcode":"10011","city":"New York","state":"NY","buildingName":"Lesbian, Gay, Bi-Sexual & Transgender Community Center","ada":true,"lat":"40.7381228","long":"-74.0010304"},{"addressPK":65,"streetAddress":"209 E 16TH ST New York NY","zipcode":"10003","city":"New York","state":"NY","buildingName":"Saint George Episcopal Church","ada":false,"lat":"40.7345135","long":"-73.9854432"},{"addressPK":66,"streetAddress":"209 MADISON AVE New York NY","zipcode":"10016","city":"New York","state":"NY","buildingName":"Church of the Incarnation","ada":false,"lat":"40.7486487","long":"-73.9821254"},{"addressPK":67,"streetAddress":"210 W 31ST ST New York NY","zipcode":"10001","city":"New York","state":"NY","buildingName":"St. John the Baptist Church","ada":false,"lat":"40.7434762","long":"-73.9789404"},{"addressPK":68,"streetAddress":"211 W 129TH ST New York NY","zipcode":"10027","city":"New York","state":"NY","buildingName":"Salem United Methodist Church Community Center","ada":true,"lat":"40.8119105","long":"-73.9471217"},{"addressPK":69,"streetAddress":"211 W 30TH ST New York NY","zipcode":"10001","city":"New York","state":"NY","buildingName":"St. John&apos;s Hall","ada":false,"lat":"40.7486793956479","long":"-73.9927286472649"},{"addressPK":70,"streetAddress":"2126 2ND AVE New York NY","zipcode":"10029","city":"New York","state":"NY","buildingName":"","ada":true,"lat":"40.7927121","long":"-73.94069"},{"addressPK":71,"streetAddress":"213 W 82ND ST New York NY","zipcode":"10024","city":"New York","state":"NY","buildingName":"Holy Trinity Church","ada":true,"lat":"40.7760114","long":"-73.9550312"},{"addressPK":72,"streetAddress":"215 W 82ND ST New York NY","zipcode":"10024","city":"New York","state":"NY","buildingName":"Holy Trinity Rectory","ada":true,"lat":"40.7852818734432","long":"-73.9771060064311"},{"addressPK":73,"streetAddress":"218 W 108TH ST New York NY","zipcode":"10025","city":"New York","state":"NY","buildingName":"Grace House","ada":true,"lat":"40.8021037","long":"-73.9658778"},{"addressPK":74,"streetAddress":"219 W 132ND ST New York NY","zipcode":"10027","city":"New York","state":"NY","buildingName":"St. Aloysius School","ada":false,"lat":"40.8138548","long":"-73.9459315"},{"addressPK":75,"streetAddress":"22 BARCLAY ST New York NY","zipcode":"10007","city":"New York","state":"NY","buildingName":"Saint Peter&apos;s Church","ada":false,"lat":"40.7125016","long":"-74.0094639"},{"addressPK":76,"streetAddress":"22 E 119TH ST New York NY","zipcode":"10035","city":"New York","state":"NY","buildingName":"Veterans Residence","ada":true,"lat":"40.8021458","long":"-73.9442327"},{"addressPK":77,"streetAddress":"220 W HOUSTON ST New York NY","zipcode":"10014","city":"New York","state":"NY","buildingName":"","ada":false,"lat":"40.7286385","long":"-74.0045871"},{"addressPK":78,"streetAddress":"221 W 107TH ST New York NY","zipcode":"10025","city":"New York","state":"NY","buildingName":"Church of the Ascension","ada":false,"lat":"40.8017795","long":"-73.9665393"},{"addressPK":79,"streetAddress":"223 E 117TH ST New York NY","zipcode":"10035","city":"New York","state":"NY","buildingName":"Peter Jay Sharpe Building","ada":true,"lat":"40.7982106","long":"-73.9382769"},{"addressPK":80,"streetAddress":"224 WAVERLY PL New York NY","zipcode":"10014","city":"New York","state":"NY","buildingName":"St. John&apos;s Episcopal Church","ada":false,"lat":"40.7360657","long":"-74.0019452"},{"addressPK":81,"streetAddress":"225 W 99TH ST New York NY","zipcode":"10025","city":"New York","state":"NY","buildingName":"St. Michael&apos;s Parish House","ada":false,"lat":"40.7964452","long":"-73.9694226"},{"addressPK":82,"streetAddress":"229 W 14TH ST New York NY","zipcode":"10011","city":"New York","state":"NY","buildingName":"Our Lady of Guadalupe Church","ada":false,"lat":"40.7392489","long":"-74.0008788"},{"addressPK":83,"streetAddress":"230 E 60TH ST New York NY","zipcode":"10022","city":"New York","state":"NY","buildingName":"ALL SAINTS CHURCH","ada":false,"lat":"40.7615607","long":"-73.9649474"},{"addressPK":84,"streetAddress":"230 E 90TH ST New York NY","zipcode":"10128","city":"New York","state":"NY","buildingName":"Our Lady of Good Counsel Church","ada":false,"lat":"40.780841","long":"-73.9510956"},{"addressPK":85,"streetAddress":"232 W 11TH ST New York NY","zipcode":"10014","city":"New York","state":"NY","buildingName":"Manhattan Seventh-Day Adventist Church","ada":false,"lat":"40.736193","long":"-74.0028632"},{"addressPK":86,"streetAddress":"236 E 31ST ST New York NY","zipcode":"10016","city":"New York","state":"NY","buildingName":"CHURCH OF THE GOOD SHEPARD","ada":false,"lat":"40.74314","long":"-73.9781525"},{"addressPK":87,"streetAddress":"236 W 73RD ST New York NY","zipcode":"10023","city":"New York","state":"NY","buildingName":"Rutgers Church","ada":true,"lat":"40.7796494","long":"-73.982239"},{"addressPK":88,"streetAddress":"239 E 21ST ST New York NY","zipcode":"10009","city":"New York","state":"NY","buildingName":"Epiphany Roman Catholic Church","ada":false,"lat":"40.7369141","long":"-73.9823276"},{"addressPK":89,"streetAddress":"240 E 31ST ST New York NY","zipcode":"10016","city":"New York","state":"NY","buildingName":"Church of the Good Shepherd","ada":true,"lat":"40.7430963","long":"-73.9780494"},{"addressPK":90,"streetAddress":"240 W 145TH ST New York NY","zipcode":"10039","city":"New York","state":"NY","buildingName":"Union Baptist Church","ada":true,"lat":"40.8222189","long":"-73.9408621"},{"addressPK":91,"streetAddress":"244 E 58TH ST New York NY","zipcode":"10022","city":"New York","state":"NY","buildingName":"Caron Foundation","ada":true,"lat":"40.7600925","long":"-73.9653811"},{"addressPK":92,"streetAddress":"25 E 15TH CONFERENCE New York NY","zipcode":"10003","city":"New York","state":"NY","buildingName":"The Realization Center","ada":false,"lat":"40.7361047","long":"-73.9914936"},{"addressPK":93,"streetAddress":"2504 BROADWAY New York NY","zipcode":"10025","city":"New York","state":"NY","buildingName":"Advent Lutheran Church","ada":true,"lat":"40.7927534","long":"-73.972842"},{"addressPK":94,"streetAddress":"251 W 100TH ST New York NY","zipcode":"10025","city":"New York","state":"NY","buildingName":"Anshe Chesed Synagogue","ada":true,"lat":"40.7977791","long":"-73.9709911"},{"addressPK":95,"streetAddress":"251 W 80TH ST New York NY","zipcode":"10024","city":"New York","state":"NY","buildingName":"All Angels Church","ada":true,"lat":"40.7848713","long":"-73.9800524"},{"addressPK":96,"streetAddress":"252 W 46TH ST New York NY","zipcode":"10036","city":"New York","state":"NY","buildingName":"46th Street Club House","ada":false,"lat":"40.7593831","long":"-73.9872329"},{"addressPK":97,"streetAddress":"253 CENTER ST New York NY","zipcode":"10013","city":"New York","state":"NY","buildingName":"Golden Bridge Yoga Center","ada":false,"lat":"40.7206323","long":"-73.9979756"},{"addressPK":98,"streetAddress":"26 W 84TH ST New York NY","zipcode":"10024","city":"New York","state":"NY","buildingName":"Church of St. Matthew & St. Timothy","ada":true,"lat":"40.7844228","long":"-73.9716168"},{"addressPK":99,"streetAddress":"263 W 86TH ST New York NY","zipcode":"10024","city":"New York","state":"NY","buildingName":"Church of St. Paul & St. Andrew","ada":true,"lat":"40.7887918","long":"-73.9772649"},{"addressPK":100,"streetAddress":"273 BOWERY ST New York NY","zipcode":"10002","city":"New York","state":"NY","buildingName":"University Settlement @ Houston Street Center","ada":true,"lat":"40.7236736","long":"-73.9924832"},{"addressPK":101,"streetAddress":"28 E 35TH ST New York NY","zipcode":"10016","city":"New York","state":"NY","buildingName":"J.H. Holmes Community House","ada":false,"lat":"40.7496065","long":"-73.9854965"},{"addressPK":102,"streetAddress":"28 GRAMERCY PARK S New York NY","zipcode":"10010","city":"New York","state":"NY","buildingName":"Brothhood Synagogue","ada":true,"lat":"40.7371499","long":"-73.9853123"},{"addressPK":103,"streetAddress":"283 LEXINGTON AVE New York NY","zipcode":"10016","city":"New York","state":"NY","buildingName":"Soldiers, Sailors, Marines & Airmen&apos;s Club","ada":false,"lat":"40.7479969","long":"-73.9783809"},{"addressPK":104,"streetAddress":"283 W BROADWAY New York NY","zipcode":"10013","city":"New York","state":"NY","buildingName":"Hazelden Tribeca","ada":true,"lat":"40.7144166","long":"-73.9843646"},{"addressPK":105,"streetAddress":"29 MOTT ST New York NY","zipcode":"10013","city":"New York","state":"NY","buildingName":"Church of the Transfiguration","ada":false,"lat":"40.7147965","long":"-73.9990363"},{"addressPK":106,"streetAddress":"292 HENRY ST New York NY","zipcode":"10002","city":"New York","state":"NY","buildingName":"St. Augustine&apos;s Church","ada":true,"lat":"40.7137143","long":"-73.983033"},{"addressPK":107,"streetAddress":"296 9TH AVE New York NY","zipcode":"10001","city":"New York","state":"NY","buildingName":"Holy Apostles Church Rectory","ada":false,"lat":"40.7493642017494","long":"-73.9991233310954"},{"addressPK":108,"streetAddress":"3 W 95TH ST New York NY","zipcode":"10025","city":"New York","state":"NY","buildingName":"Second Presbyterian Church","ada":false,"lat":"40.7912379","long":"-73.9655109"},{"addressPK":109,"streetAddress":"30 E 35TH ST New York NY","zipcode":"10016","city":"New York","state":"NY","buildingName":"","ada":false,"lat":"40.7496221","long":"-73.9855348"},{"addressPK":110,"streetAddress":"30 W 68TH ST New York NY","zipcode":"10023","city":"New York","state":"NY","buildingName":"Stephen Wise Free Synagogue","ada":true,"lat":"40.7740859","long":"-73.979107"},{"addressPK":111,"streetAddress":"303 W 42ND ST New York NY","zipcode":"10036","city":"New York","state":"NY","buildingName":"","ada":false,"lat":"40.7575385","long":"-73.9901368"},{"addressPK":112,"streetAddress":"305 7TH AVE New York NY","zipcode":"10001","city":"New York","state":"NY","buildingName":"S.A.G.E.","ada":true,"lat":"40.7467107","long":"-73.9935208"},{"addressPK":113,"streetAddress":"306 W 102ND ST New York NY","zipcode":"10025","city":"New York","state":"NY","buildingName":"Trinity Halfway House","ada":false,"lat":"40.7992334","long":"-73.9710638"},{"addressPK":114,"streetAddress":"307 W 26TH ST New York NY","zipcode":"10011","city":"New York","state":"NY","buildingName":"The Upright Citizens Brigade Theatre","ada":true,"lat":"40.7474685","long":"-73.9974137"},{"addressPK":115,"streetAddress":"308 E 55TH ST New York NY","zipcode":"10022","city":"New York","state":"NY","buildingName":"Conservative Synagogue","ada":false,"lat":"40.7576943","long":"-73.9657436"},{"addressPK":116,"streetAddress":"310 E 67TH ST New York NY","zipcode":"10065","city":"New York","state":"NY","buildingName":"New York Blood Center","ada":true,"lat":"40.7651821","long":"-73.9599207"},{"addressPK":117,"streetAddress":"310 W 139TH ST New York NY","zipcode":"10037","city":"New York","state":"NY","buildingName":"Grace Congregational Baptist Church","ada":false,"lat":"40.8192096","long":"-73.9453784"},{"addressPK":118,"streetAddress":"315 W 22ND ST New York NY","zipcode":"10011","city":"New York","state":"NY","buildingName":"German Evangelist Lutheran Church of St. Paul","ada":false,"lat":"40.7450587","long":"-73.9997029"},{"addressPK":119,"streetAddress":"319 EASTR 24TH ST New York NY","zipcode":"10010","city":"New York","state":"NY","buildingName":"East Midtown Plaza (Community Room H)","ada":true,"lat":"40.742272","long":"-73.987907"},{"addressPK":120,"streetAddress":"325 PARK AVE New York NY","zipcode":"10022","city":"New York","state":"NY","buildingName":"St. Bartholomew&apos;s Church","ada":false,"lat":"40.7574552","long":"-73.9733937"},{"addressPK":121,"streetAddress":"331 E 70TH ST New York NY","zipcode":"10021","city":"New York","state":"NY","buildingName":"Lenox Hill Neighborhood House","ada":false,"lat":"40.766948","long":"-73.9577722"},{"addressPK":122,"streetAddress":"337 E 74TH ST New York NY","zipcode":"10021","city":"New York","state":"NY","buildingName":"Archdiocian Cathedral of the Holy Trinity","ada":true,"lat":"40.7696836","long":"-73.9561119"},{"addressPK":123,"streetAddress":"339 W 47TH ST New York NY","zipcode":"10036","city":"New York","state":"NY","buildingName":"The Actor&apos;s Temple","ada":false,"lat":"40.7612077","long":"-73.9891128"},{"addressPK":124,"streetAddress":"340 W 85TH ST New York NY","zipcode":"10024","city":"New York","state":"NY","buildingName":"Volunteers of America","ada":false,"lat":"40.7887343","long":"-73.9798639"},{"addressPK":125,"streetAddress":"341 E 87TH ST New York NY","zipcode":"10128","city":"New York","state":"NY","buildingName":"Holy Trinity Church","ada":false,"lat":"40.7780211","long":"-73.9497263"},{"addressPK":126,"streetAddress":"343 W 25TH ST New York NY","zipcode":"10001","city":"New York","state":"NY","buildingName":"St. Columba Church","ada":false,"lat":"40.747411","long":"-73.9992698"},{"addressPK":127,"streetAddress":"344 E 14TH ST New York NY","zipcode":"10003","city":"New York","state":"NY","buildingName":"14th Street Y","ada":true,"lat":"40.7314102","long":"-73.9832013"},{"addressPK":128,"streetAddress":"346 W 20TH ST New York NY","zipcode":"10011","city":"New York","state":"NY","buildingName":"St. Peters Episcopal Church- Rectory","ada":false,"lat":"40.7441452","long":"-74.0019191"},{"addressPK":129,"streetAddress":"35 E 125 ST New York NY","zipcode":"10035","city":"New York","state":"NY","buildingName":"Harlem Children&apos;s Zone Admin. Offices","ada":true,"lat":"40.805958","long":"-73.940763"},{"addressPK":130,"streetAddress":"35 THAYER ST New York NY","zipcode":"10040","city":"New York","state":"NY","buildingName":"","ada":true,"lat":"40.8626147","long":"-73.9263819"},{"addressPK":131,"streetAddress":"350 E 56TH ST New York NY","zipcode":"10022","city":"New York","state":"NY","buildingName":"Cathedral High School","ada":false,"lat":"40.757654","long":"-73.963834"},{"addressPK":132,"streetAddress":"351 E 74TH ST New York NY","zipcode":"10021","city":"New York","state":"NY","buildingName":"Jan Hus Church","ada":false,"lat":"40.7694194","long":"-73.9555151"},{"addressPK":133,"streetAddress":"368 W END AVE New York NY","zipcode":"10024","city":"New York","state":"NY","buildingName":"West End Collegiate Church","ada":false,"lat":"40.783225","long":"-73.9817572"},{"addressPK":134,"streetAddress":"371 6TH AVE New York NY","zipcode":"10014","city":"New York","state":"NY","buildingName":"St. Joseph&apos;s Church","ada":true,"lat":"40.6701581","long":"-73.9819879"},{"addressPK":135,"streetAddress":"4 W 43RD ST New York NY","zipcode":"10017","city":"New York","state":"NY","buildingName":"The Learning Center","ada":true,"lat":"40.7543885","long":"-73.9812083"},{"addressPK":136,"streetAddress":"4 W 76TH ST New York NY","zipcode":"10023","city":"New York","state":"NY","buildingName":"Universalist Church","ada":false,"lat":"40.7788736","long":"-73.9745891"},{"addressPK":137,"streetAddress":"405 W 114TH ST New York NY","zipcode":"10025","city":"New York","state":"NY","buildingName":"Church of Notre Dame","ada":true,"lat":"40.7946083","long":"-73.9358608"},{"addressPK":138,"streetAddress":"405 W 59TH ST New York NY","zipcode":"10019","city":"New York","state":"NY","buildingName":"St. Paul&apos;s Episcopal Parish House","ada":true,"lat":"40.7697538","long":"-73.9857965"},{"addressPK":139,"streetAddress":"408 E 82ND ST New York NY","zipcode":"10028","city":"New York","state":"NY","buildingName":"St. Stephen of Hungary Church","ada":false,"lat":"40.7738528","long":"-73.9504699"},{"addressPK":140,"streetAddress":"409 W 141ST ST New York NY","zipcode":"10031","city":"New York","state":"NY","buildingName":"St. James Church","ada":false,"lat":"40.8215113","long":"-73.9463991"},{"addressPK":141,"streetAddress":"411 E 12TH ST New York NY","zipcode":"10009","city":"New York","state":"NY","buildingName":"","ada":false,"lat":"40.729824","long":"-73.982816"},{"addressPK":142,"streetAddress":"411 E 68TH ST New York NY","zipcode":"10021","city":"New York","state":"NY","buildingName":"Church of St. Catherine of Siena","ada":true,"lat":"40.7651081","long":"-73.957215"},{"addressPK":143,"streetAddress":"413 E 79TH ST New York NY","zipcode":"10021","city":"New York","state":"NY","buildingName":"St. Monica&apos;s Church","ada":false,"lat":"40.7721222","long":"-73.9517608"},{"addressPK":144,"streetAddress":"414 E 14TH ST New York NY","zipcode":"10009","city":"New York","state":"NY","buildingName":"Our Lady of Immaculate Conception","ada":true,"lat":"40.7309298","long":"-73.9819876"},{"addressPK":145,"streetAddress":"420 E 76TH ST New York NY","zipcode":"10021","city":"New York","state":"NY","buildingName":"Gracie Square Hospital","ada":true,"lat":"40.7697705","long":"-73.9529077"},{"addressPK":146,"streetAddress":"420 E 87TH ST New York NY","zipcode":"10128","city":"New York","state":"NY","buildingName":"St. Joseph&apos;s School","ada":false,"lat":"40.7770465","long":"-73.9479432"},{"addressPK":147,"streetAddress":"422 W 57TH ST New York NY","zipcode":"10019","city":"New York","state":"NY","buildingName":"Trinity Presbyterian Church","ada":false,"lat":"40.7682311","long":"-73.9868768"},{"addressPK":148,"streetAddress":"423 E 23RD ST New York NY","zipcode":"10010","city":"New York","state":"NY","buildingName":"Veterans Administration Hospital","ada":true,"lat":"40.7368113","long":"-73.9772015"},{"addressPK":149,"streetAddress":"423 W 46TH ST New York NY","zipcode":"10036","city":"New York","state":"NY","buildingName":"St. Clements Church","ada":true,"lat":"40.6483729","long":"-74.009462"},{"addressPK":150,"streetAddress":"425 W 144TH ST New York NY","zipcode":"10031","city":"New York","state":"NY","buildingName":"Convent Baptist Church Education Building","ada":true,"lat":"40.8238524","long":"-73.9461167"},{"addressPK":151,"streetAddress":"431 W 204TH ST New York NY","zipcode":"10034","city":"New York","state":"NY","buildingName":"St. Jude&apos;s School","ada":false,"lat":"40.8620966104922","long":"-73.9190004613749"},{"addressPK":152,"streetAddress":"44 2ND AVE New York NY","zipcode":"10003","city":"New York","state":"NY","buildingName":"Church of the Nativity","ada":false,"lat":"40.7251086","long":"-73.9899858"},{"addressPK":153,"streetAddress":"44 JOHN ST New York NY","zipcode":"10038","city":"New York","state":"NY","buildingName":"","ada":false,"lat":"40.7091732","long":"-74.0080677"},{"addressPK":154,"streetAddress":"441 W 26TH ST New York NY","zipcode":"10001","city":"New York","state":"NY","buildingName":"Hudson Guild","ada":true,"lat":"40.7495486","long":"-74.0015106"},{"addressPK":155,"streetAddress":"446 W 33RD ST New York NY","zipcode":"10001","city":"New York","state":"NY","buildingName":"GMHC","ada":true,"lat":"40.753496","long":"-73.9989428"},{"addressPK":156,"streetAddress":"469 W 142ND ST New York NY","zipcode":"10031","city":"New York","state":"NY","buildingName":"Our Lady of Lourdes","ada":false,"lat":"40.8232166","long":"-73.9484769"},{"addressPK":157,"streetAddress":"48 E 80TH ST New York NY","zipcode":"10021","city":"New York","state":"NY","buildingName":"Manhattan Church of Christ","ada":true,"lat":"40.7767263","long":"-73.9612366"},{"addressPK":158,"streetAddress":"48 E 84TH ST New York NY","zipcode":"10028","city":"New York","state":"NY","buildingName":"St. Ignatius Loyola School","ada":true,"lat":"40.7790604","long":"-73.9588788"},{"addressPK":159,"streetAddress":"484 W 43RD ST New York NY","zipcode":"10036","city":"New York","state":"NY","buildingName":"Manhattan Plaza Health Club","ada":true,"lat":"40.7599913","long":"-73.9948326"},{"addressPK":160,"streetAddress":"487 HUDSON ST New York NY","zipcode":"10014","city":"New York","state":"NY","buildingName":"St. Luke&apos;s Episcopal School","ada":false,"lat":"40.7326","long":"-74.0067"},{"addressPK":161,"streetAddress":"49 FULTON ST New York NY","zipcode":"10038","city":"New York","state":"NY","buildingName":"","ada":true,"lat":"40.7080393","long":"-74.0042361"},{"addressPK":162,"streetAddress":"5 W 63RD ST New York NY","zipcode":"10023","city":"New York","state":"NY","buildingName":"West Side YMCA at 63rd Street","ada":true,"lat":"40.7708644","long":"-73.9806413"},{"addressPK":163,"streetAddress":"50 E 7TH ST New York NY","zipcode":"10003","city":"New York","state":"NY","buildingName":"Middle Collegiate Church","ada":false,"lat":"40.7276522","long":"-73.9875923"},{"addressPK":164,"streetAddress":"50 PERRY ST New York NY","zipcode":"10014","city":"New York","state":"NY","buildingName":"","ada":false,"lat":"40.7354854","long":"-74.0031569"},{"addressPK":165,"streetAddress":"502 WEST165TH ST New York NY","zipcode":"10032","city":"New York","state":"NY","buildingName":"Church Santa Rosa de Lima","ada":false,"lat":"40.83668","long":"-73.939944"},{"addressPK":166,"streetAddress":"506 LENOX AVE New York NY","zipcode":"10037","city":"New York","state":"NY","buildingName":"Harlem Hospital King Pavilion","ada":true,"lat":"40.8143457","long":"-73.9403066"},{"addressPK":167,"streetAddress":"51 E 25TH ST New York NY","zipcode":"10010","city":"New York","state":"NY","buildingName":"Intercare","ada":true,"lat":"40.7419488","long":"-73.9861549"},{"addressPK":168,"streetAddress":"520 PARK AVE New York NY","zipcode":"10021","city":"New York","state":"NY","buildingName":"Christ United Methodist Church","ada":true,"lat":"40.7639426","long":"-73.9700429"},{"addressPK":169,"streetAddress":"521 W 126TH ST New York NY","zipcode":"10027","city":"New York","state":"NY","buildingName":"St. Mary&apos;s Episcopal","ada":true,"lat":"40.8148408","long":"-73.9561515"},{"addressPK":170,"streetAddress":"538 W 47TH ST New York NY","zipcode":"10036","city":"New York","state":"NY","buildingName":"Apartment Building","ada":false,"lat":"40.7634021","long":"-73.9948352"},{"addressPK":171,"streetAddress":"550 W 155TH ST New York NY","zipcode":"10032","city":"New York","state":"NY","buildingName":"Church of the Intercession","ada":false,"lat":"40.8321897","long":"-73.945059"},{"addressPK":172,"streetAddress":"552 W END AVE New York NY","zipcode":"10024","city":"New York","state":"NY","buildingName":"St. Ignatius Church","ada":false,"lat":"40.78931","long":"-73.9773114"},{"addressPK":173,"streetAddress":"557 W 156TH ST New York NY","zipcode":"10032","city":"New York","state":"NY","buildingName":"Casita Esperanza","ada":true,"lat":"40.8333254","long":"-73.9446563"},{"addressPK":174,"streetAddress":"5866 W 135TH ST New York NY","zipcode":"10037","city":"New York","state":"NY","buildingName":"Metropolitan AME Church","ada":true,"lat":"40.814876","long":"-73.938236"},{"addressPK":175,"streetAddress":"593 PARK AVE New York NY","zipcode":"10128","city":"New York","state":"NY","buildingName":"Central Presbyterian Church","ada":true,"lat":"40.765841","long":"-73.9673386"},{"addressPK":176,"streetAddress":"595 COLUMBUS AVE New York NY","zipcode":"10024","city":"New York","state":"NY","buildingName":"Goddard Riverside Community Center","ada":true,"lat":"40.7879892","long":"-73.9707609"},{"addressPK":177,"streetAddress":"601 W 114TH ST New York NY","zipcode":"10025","city":"New York","state":"NY","buildingName":"Broadway Presbyterian Church","ada":false,"lat":"40.8069051","long":"-73.965058"},{"addressPK":178,"streetAddress":"602 E 9TH ST New York NY","zipcode":"10009","city":"New York","state":"NY","buildingName":"Trinity Lower East Side Lutheran Parish","ada":true,"lat":"40.7260409","long":"-73.9800393"},{"addressPK":179,"streetAddress":"61 FOURTH AVE New York NY","zipcode":"10003","city":"New York","state":"NY","buildingName":"Three Jewels Community Center","ada":false,"lat":"40.7307719","long":"-73.9903164"},{"addressPK":180,"streetAddress":"61 GRAMERCY PARK N New York NY","zipcode":"10010","city":"New York","state":"NY","buildingName":"Calvary Church Parish House","ada":false,"lat":"40.7387068","long":"-73.986572"},{"addressPK":181,"streetAddress":"619 LEXINGTON AVE New York NY","zipcode":"10022","city":"New York","state":"NY","buildingName":"St. Peter&apos;s Lutheran Church @ CitiCorp Center","ada":true,"lat":"40.7588016","long":"-73.9704542"},{"addressPK":182,"streetAddress":"62 E 92ND ST New York NY","zipcode":"10128","city":"New York","state":"NY","buildingName":"Brick Church Parish House","ada":true,"lat":"40.7842393","long":"-73.955258"},{"addressPK":183,"streetAddress":"620 ISHAM ST New York NY","zipcode":"10034","city":"New York","state":"NY","buildingName":"Church of the Good Shepherd","ada":false,"lat":"40.8692449","long":"-73.9206611"},{"addressPK":184,"streetAddress":"65 E 89TH ST New York NY","zipcode":"10128","city":"New York","state":"NY","buildingName":"Church of Saint Thomas Moore","ada":false,"lat":"40.78259","long":"-73.9566571"},{"addressPK":185,"streetAddress":"7 E 10TH ST New York NY","zipcode":"10003","city":"New York","state":"NY","buildingName":"Bronfman Center","ada":false,"lat":"40.7332068","long":"-73.9946888"},{"addressPK":186,"streetAddress":"7 W 55TH ST New York NY","zipcode":"10019","city":"New York","state":"NY","buildingName":"Fifth Av Presbyterian Church","ada":true,"lat":"40.7618823","long":"-73.9751297"},{"addressPK":187,"streetAddress":"701 W 168TH STREET FORT WASHINGTON AVE New York NY","zipcode":"10032","city":"New York","state":"NY","buildingName":"Columbia Presbyterian Hospital","ada":true,"lat":"40.8424566","long":"-73.9424508"},{"addressPK":188,"streetAddress":"715 W 179TH ST New York NY","zipcode":"10033","city":"New York","state":"NY","buildingName":"Holy Rood Church","ada":true,"lat":"40.8492702","long":"-73.9382266"},{"addressPK":189,"streetAddress":"729 7TH AVE New York NY","zipcode":"10019","city":"New York","state":"NY","buildingName":"The Actors Fund of America","ada":true,"lat":"40.7601119","long":"-73.9837538"},{"addressPK":190,"streetAddress":"80 5TH AVE New York NY","zipcode":"10011","city":"New York","state":"NY","buildingName":"","ada":true,"lat":"40.7358709","long":"-73.9939317"},{"addressPK":191,"streetAddress":"80 SAINT MARK New York NY","zipcode":"10003","city":"New York","state":"NY","buildingName":"Theatre 80","ada":false,"lat":"40.7276521","long":"-73.9857329"},{"addressPK":192,"streetAddress":"802 BROADWAY New York NY","zipcode":"10003","city":"New York","state":"NY","buildingName":"Grace Church Office Building","ada":true,"lat":"40.7320395","long":"-73.991189"},{"addressPK":193,"streetAddress":"81 CHRISTOPHER ST New York NY","zipcode":"10014","city":"New York","state":"NY","buildingName":"St. John&apos;s Lutheran Church","ada":false,"lat":"40.7335983","long":"-74.0035744"},{"addressPK":194,"streetAddress":"83 CHRISTOPHER ST New York NY","zipcode":"10014","city":"New York","state":"NY","buildingName":"St. John&apos;s Lutheran Church","ada":false,"lat":"40.7335702","long":"-74.0037456"},{"addressPK":195,"streetAddress":"84 VERMILYEA AVE New York NY","zipcode":"10034","city":"New York","state":"NY","buildingName":"Mount Washington Presbyterian Church","ada":false,"lat":"40.86596","long":"-73.9231447"},{"addressPK":196,"streetAddress":"865 MADISON AVE New York NY","zipcode":"10021","city":"New York","state":"NY","buildingName":"St. James Church","ada":true,"lat":"40.7713251","long":"-73.9655852"},{"addressPK":197,"streetAddress":"91 ARDEN ST New York NY","zipcode":"10034","city":"New York","state":"NY","buildingName":"Our Lady Queen of Martyrs","ada":false,"lat":"40.8639073","long":"-73.9282532"},{"addressPK":198,"streetAddress":"91 CLAREMONT AVE New York NY","zipcode":"10027","city":"New York","state":"NY","buildingName":"Riverside Church","ada":true,"lat":"40.8119559","long":"-73.9625116"},{"addressPK":199,"streetAddress":"160 CENTRAL PARK W New York NY","zipcode":"10023","city":"New York","state":"NY","buildingName":"Universalist Church","ada":false,"lat":"40.7787712","long":"-73.9743066"},{"addressPK":200,"streetAddress":"CHURCH OF THE GOOD SHEPARD New York NY","zipcode":"10044","city":"New York","state":"NY","buildingName":"","ada":true,"lat":"40.760799","long":"-73.945729"}]